CSS (TIANHE)            
1 48274U 21035A   23331.22422813  .00039981  00000+0  43307-3 0  9991
2 48274  41.4711 243.1516 0007104 232.0211 127.9987 15.62759935147322
